[{"OBJECT_NAME":"STARLINK-6223","OBJECT_ID":"2023-088K","EPOCH":"2026-03-08T12:14:36.696480","MEAN_MOTION":15.02538628,"ECCENTRICITY":0.00012545,"INCLINATION":43.0026,"RA_OF_ASC_NODE":113.7455,"ARG_OF_PERICENTER":268.1992,"MEAN_ANOMALY":91.8707,"EPHEMERIS_TYPE":0,"CLASSIFICATION_TYPE":"U","NORAD_CAT_ID":57057,"ELEMENT_SET_NO":999,"REV_AT_EPOCH":15019,"BSTAR":1.7020194e-5,"MEAN_MOTION_DOT":2.6e-7,"MEAN_MOTION_DDOT":0},{"OBJECT_NAME":"CZ-4C DEB","OBJECT_ID":"2010-038E","EPOCH":"2026-03-08T13:52:01.201152","MEAN_MOTION":14.99820212,"ECCENTRICITY":0.00772359,"INCLINATION":97.9453,"RA_OF_ASC_NODE":199.3713,"ARG_OF_PERICENTER":309.8702,"MEAN_ANOMALY":49.5744,"EPHEMERIS_TYPE":0,"CLASSIFICATION_TYPE":"U","NORAD_CAT_ID":37569,"ELEMENT_SET_NO":999,"REV_AT_EPOCH":82446,"BSTAR":0.0019249603,"MEAN_MOTION_DOT":0.00025376,"MEAN_MOTION_DDOT":0}]
